[{"OBJECT_NAME":"GPS BIIF-11 (PRN 10)","OBJECT_ID":"2015-062A","EPOCH":"2026-03-14T13:08:39.594336","MEAN_MOTION":2.00567062,"ECCENTRICITY":0.01114002,"INCLINATION":56.8998,"RA_OF_ASC_NODE":34.4573,"ARG_OF_PERICENTER":231.5515,"MEAN_ANOMALY":127.4408,"EPHEMERIS_TYPE":0,"CLASSIFICATION_TYPE":"U","NORAD_CAT_ID":41019,"ELEMENT_SET_NO":999,"REV_AT_EPOCH":7593,"BSTAR":0,"MEAN_MOTION_DOT":-4.6e-7,"MEAN_MOTION_DDOT":0},{"OBJECT_NAME":"GSAT-15 (GAGAN/PRN 139)","OBJECT_ID":"2015-065A","EPOCH":"2026-03-15T02:04:04.564416","MEAN_MOTION":1.00271405,"ECCENTRICITY":0.00015688,"INCLINATION":0.0651,"RA_OF_ASC_NODE":269.1503,"ARG_OF_PERICENTER":126.8549,"MEAN_ANOMALY":261.2054,"EPHEMERIS_TYPE":0,"CLASSIFICATION_TYPE":"U","NORAD_CAT_ID":41028,"ELEMENT_SET_NO":999,"REV_AT_EPOCH":3785,"BSTAR":0,"MEAN_MOTION_DOT":-2.59e-6,"MEAN_MOTION_DDOT":0},{"OBJECT_NAME":"GSAT0209 (GALILEO 12)","OBJECT_ID":"2015-079A","EPOCH":"2026-03-14T14:22:14.487456","MEAN_MOTION":1.70474547,"ECCENTRICITY":0.00050244,"INCLINATION":55.7661,"RA_OF_ASC_NODE":103.8551,"ARG_OF_PERICENTER":323.192,"MEAN_ANOMALY":36.8517,"EPHEMERIS_TYPE":0,"CLASSIFICATION_TYPE":"U","NORAD_CAT_ID":41174,"ELEMENT_SET_NO":999,"REV_AT_EPOCH":6316,"BSTAR":0,"MEAN_MOTION_DOT":4.2e-7,"MEAN_MOTION_DDOT":0},{"OBJECT_NAME":"GSAT0208 (GALILEO 11)","OBJECT_ID":"2015-079B","EPOCH":"2026-03-13T01:25:18.997824","MEAN_MOTION":1.70474457,"ECCENTRICITY":0.00043804,"INCLINATION":55.7636,"RA_OF_ASC_NODE":103.8944,"ARG_OF_PERICENTER":323.4331,"MEAN_ANOMALY":36.6088,"EPHEMERIS_TYPE":0,"CLASSIFICATION_TYPE":"U","NORAD_CAT_ID":41175,"ELEMENT_SET_NO":999,"REV_AT_EPOCH":6355,"BSTAR":0,"MEAN_MOTION_DOT":3.0e-7,"MEAN_MOTION_DDOT":0},{"OBJECT_NAME":"IRNSS-1E","OBJECT_ID":"2016-003A","EPOCH":"2026-03-14T21:01:18.598944","MEAN_MOTION":1.00270241,"ECCENTRICITY":0.00172977,"INCLINATION":33.0313,"RA_OF_ASC_NODE":61.1066,"ARG_OF_PERICENTER":189.2801,"MEAN_ANOMALY":349.1711,"EPHEMERIS_TYPE":0,"CLASSIFICATION_TYPE":"U","NORAD_CAT_ID":41241,"ELEMENT_SET_NO":999,"REV_AT_EPOCH":3713,"BSTAR":0,"MEAN_MOTION_DOT":-2.77e-6,"MEAN_MOTION_DDOT":0},{"OBJECT_NAME":"GPS BIIF-12 (PRN 32)","OBJECT_ID":"2016-007A","EPOCH":"2026-03-13T03:18:14.935968","MEAN_MOTION":2.0055639,"ECCENTRICITY":0.00956473,"INCLINATION":55.4616,"RA_OF_ASC_NODE":93.266,"ARG_OF_PERICENTER":246.2279,"MEAN_ANOMALY":112.823,"EPHEMERIS_TYPE":0,"CLASSIFICATION_TYPE":"U","NORAD_CAT_ID":41328,"ELEMENT_SET_NO":999,"REV_AT_EPOCH":7391,"BSTAR":0,"MEAN_MOTION_DOT":3.0e-7,"MEAN_MOTION_DDOT":0},{"OBJECT_NAME":"COSMOS 2514 (751)","OBJECT_ID":"2016-008A","EPOCH":"2026-03-14T23:08:06.860256","MEAN_MOTION":2.13102703,"ECCENTRICITY":0.00090074,"INCLINATION":65.0762,"RA_OF_ASC_NODE":316.2426,"ARG_OF_PERICENTER":206.6509,"MEAN_ANOMALY":153.3673,"EPHEMERIS_TYPE":0,"CLASSIFICATION_TYPE":"U","NORAD_CAT_ID":41330,"ELEMENT_SET_NO":999,"REV_AT_EPOCH":7861,"BSTAR":0,"MEAN_MOTION_DOT":-1.6e-7,"MEAN_MOTION_DDOT":0},{"OBJECT_NAME":"IRNSS-1F","OBJECT_ID":"2016-015A","EPOCH":"2026-03-15T05:57:38.683296","MEAN_MOTION":1.00276665,"ECCENTRICITY":0.00188511,"INCLINATION":5.1117,"RA_OF_ASC_NODE":98.9973,"ARG_OF_PERICENTER":189.0156,"MEAN_ANOMALY":6.7323,"EPHEMERIS_TYPE":0,"CLASSIFICATION_TYPE":"U","NORAD_CAT_ID":41384,"ELEMENT_SET_NO":999,"REV_AT_EPOCH":3672,"BSTAR":0,"MEAN_MOTION_DOT":1.59e-6,"MEAN_MOTION_DDOT":0},{"OBJECT_NAME":"BEIDOU-2 IGSO-6 (C13)","OBJECT_ID":"2016-021A","EPOCH":"2026-03-14T20:56:11.588640","MEAN_MOTION":1.00276688,"ECCENTRICITY":0.00593494,"INCLINATION":60.1011,"RA_OF_ASC_NODE":38.976,"ARG_OF_PERICENTER":233.2646,"MEAN_ANOMALY":310.0546,"EPHEMERIS_TYPE":0,"CLASSIFICATION_TYPE":"U","NORAD_CAT_ID":41434,"ELEMENT_SET_NO":999,"REV_AT_EPOCH":3653,"BSTAR":0,"MEAN_MOTION_DOT":-1.28e-6,"MEAN_MOTION_DDOT":0},{"OBJECT_NAME":"IRNSS-1G","OBJECT_ID":"2016-027A","EPOCH":"2026-03-14T23:35:38.735808","MEAN_MOTION":1.00263469,"ECCENTRICITY":0.00056139,"INCLINATION":4.9617,"RA_OF_ASC_NODE":99.7395,"ARG_OF_PERICENTER":315.9189,"MEAN_ANOMALY":240.1519,"EPHEMERIS_TYPE":0,"CLASSIFICATION_TYPE":"U","NORAD_CAT_ID":41469,"ELEMENT_SET_NO":999,"REV_AT_EPOCH":3623,"BSTAR":0,"MEAN_MOTION_DOT":-3.35e-6,"MEAN_MOTION_DDOT":0},{"OBJECT_NAME":"GSAT0211 (GALILEO 14)","OBJECT_ID":"2016-030A","EPOCH":"2026-03-14T22:37:54.344640","MEAN_MOTION":1.70473906,"ECCENTRICITY":0.00033849,"INCLINATION":55.1274,"RA_OF_ASC_NODE":224.2841,"ARG_OF_PERICENTER":23.2273,"MEAN_ANOMALY":336.7393,"EPHEMERIS_TYPE":0,"CLASSIFICATION_TYPE":"U","NORAD_CAT_ID":41549,"ELEMENT_SET_NO":999,"REV_AT_EPOCH":6106,"BSTAR":0,"MEAN_MOTION_DOT":3.2e-7,"MEAN_MOTION_DDOT":0},{"OBJECT_NAME":"GSAT0210 (GALILEO 13)","OBJECT_ID":"2016-030B","EPOCH":"2026-03-14T14:43:41.952000","MEAN_MOTION":1.70474017,"ECCENTRICITY":0.00014774,"INCLINATION":55.1254,"RA_OF_ASC_NODE":224.2912,"ARG_OF_PERICENTER":201.7077,"MEAN_ANOMALY":158.2389,"EPHEMERIS_TYPE":0,"CLASSIFICATION_TYPE":"U","NORAD_CAT_ID":41550,"ELEMENT_SET_NO":999,"REV_AT_EPOCH":6105,"BSTAR":0,"MEAN_MOTION_DOT":3.3e-7,"MEAN_MOTION_DDOT":0},{"OBJECT_NAME":"BEIDOU-2 G7 (C03)","OBJECT_ID":"2016-037A","EPOCH":"2026-03-15T02:08:41.621568","MEAN_MOTION":1.00275181,"ECCENTRICITY":0.00076361,"INCLINATION":1.4861,"RA_OF_ASC_NODE":68.3228,"ARG_OF_PERICENTER":346.6372,"MEAN_ANOMALY":260.4575,"EPHEMERIS_TYPE":0,"CLASSIFICATION_TYPE":"U","NORAD_CAT_ID":41586,"ELEMENT_SET_NO":999,"REV_AT_EPOCH":594,"BSTAR":0,"MEAN_MOTION_DOT":-3.53e-6,"MEAN_MOTION_DDOT":0},{"OBJECT_NAME":"EUTELSAT 117 WEST B (WAAS/PRN 131)","OBJECT_ID":"2016-038B","EPOCH":"2026-03-14T07:16:38.506080","MEAN_MOTION":1.00272184,"ECCENTRICITY":2.59e-5,"INCLINATION":0.0416,"RA_OF_ASC_NODE":6.7202,"ARG_OF_PERICENTER":285.2785,"MEAN_ANOMALY":232.0791,"EPHEMERIS_TYPE":0,"CLASSIFICATION_TYPE":"U","NORAD_CAT_ID":41589,"ELEMENT_SET_NO":999,"REV_AT_EPOCH":3571,"BSTAR":0,"MEAN_MOTION_DOT":-1.2e-7,"MEAN_MOTION_DDOT":0},{"OBJECT_NAME":"GSAT0207 (GALILEO 15)","OBJECT_ID":"2016-069A","EPOCH":"2026-03-13T17:15:10.731744","MEAN_MOTION":1.70474457,"ECCENTRICITY":0.00053616,"INCLINATION":55.4358,"RA_OF_ASC_NODE":103.7267,"ARG_OF_PERICENTER":309.9075,"MEAN_ANOMALY":50.1195,"EPHEMERIS_TYPE":0,"CLASSIFICATION_TYPE":"U","NORAD_CAT_ID":41859,"ELEMENT_SET_NO":999,"REV_AT_EPOCH":5777,"BSTAR":0,"MEAN_MOTION_DOT":3.4e-7,"MEAN_MOTION_DDOT":0},{"OBJECT_NAME":"GSAT0212 (GALILEO 16)","OBJECT_ID":"2016-069B","EPOCH":"2026-03-12T23:39:35.456256","MEAN_MOTION":1.70474723,"ECCENTRICITY":0.00038845,"INCLINATION":55.4332,"RA_OF_ASC_NODE":103.7422,"ARG_OF_PERICENTER":334.9903,"MEAN_ANOMALY":25.0622,"EPHEMERIS_TYPE":0,"CLASSIFICATION_TYPE":"U","NORAD_CAT_ID":41860,"ELEMENT_SET_NO":999,"REV_AT_EPOCH":5801,"BSTAR":0,"MEAN_MOTION_DOT":2.9e-7,"MEAN_MOTION_DDOT":0},{"OBJECT_NAME":"GSAT0213 (GALILEO 17)","OBJECT_ID":"2016-069C","EPOCH":"2026-03-14T12:38:03.204672","MEAN_MOTION":1.70474947,"ECCENTRICITY":0.00054805,"INCLINATION":55.4372,"RA_OF_ASC_NODE":103.7072,"ARG_OF_PERICENTER":293.9947,"MEAN_ANOMALY":66.0255,"EPHEMERIS_TYPE":0,"CLASSIFICATION_TYPE":"U","NORAD_CAT_ID":41861,"ELEMENT_SET_NO":999,"REV_AT_EPOCH":5790,"BSTAR":0,"MEAN_MOTION_DOT":4.0e-7,"MEAN_MOTION_DDOT":0}]
